NORAD_CAT_ID,OBJECT_NAME,OBJECT_TYPE,EPOCH,MEAN_MOTION,ECCENTRICITY,INCLINATION,RA_OF_ASC_NODE,ARG_OF_PERICENTER,MEAN_ANOMALY,BSTAR,MEAN_MOTION_DOT,MEAN_MOTION_DDOT,TLE_LINE0,TLE_LINE1,TLE_LINE2,SEMIMAJOR_AXIS,PERIOD,APOGEE,PERIGEE,DECAYED
52649.0,STARLINK-3868,PAYLOAD,2023-11-19 13:52:18,15.08842836,0.0001557,53.2183,74.8655,101.1281,258.9886,8.0754e-05,9.98e-06,0.0,0 STARLINK-3868,1 52649U 22052BD  23323.57799484  .00000998  00000-0  80754-4 0  9997,2 52649  53.2183  74.8655 0001557 101.1281 258.9886 15.08842836 84167,6917.872,95.437,540.814,538.66,0.0
52649.0,STARLINK-3868,PAYLOAD,2023-11-20 01:00:00,15.08840375,0.0001528,53.218,72.7851,99.2827,260.8338,4.4732e-05,4.24e-06,0.0,0 STARLINK-3868,1 52649U 22052BD  23324.04167676  .00000424  00000-0  44732-4 0  9992,2 52649  53.2180  72.7851 0001528  99.2827 260.8338 15.08840375 84609,6917.879,95.438,540.801,538.687,0.0
52649.0,STARLINK-3868,PAYLOAD,2023-11-20 13:43:05,15.08841978,0.0001558,53.2186,70.4065,100.3812,259.7356,2.2574e-05,7.1e-07,0.0,0 STARLINK-3868,1 52649U 22052BD  23324.57159676  .00000071  00000-0  22574-4 0  9999,2 52649  53.2186  70.4065 0001558 100.3812 259.7356 15.08841978 84313,6917.874,95.437,540.817,538.662,0.0
52649.0,STARLINK-3868,PAYLOAD,2023-11-20 16:53:51,15.08846237,0.000158,53.2191,69.8131,98.0717,262.0454,5.2627e-05,5.5e-06,0.0,0 STARLINK-3868,1 52649U 22052BD  23324.70407318  .00000550  00000-0  52627-4 0  9997,2 52649  53.2191  69.8131 0001580  98.0717 262.0454 15.08846237 84338,6917.861,95.437,540.819,538.633,0.0
52649.0,STARLINK-3868,PAYLOAD,2023-11-21 10:23:06,15.08842922,0.0001445,53.2183,66.5424,100.247,259.8685,3.3359e-05,2.43e-06,0.0,0 STARLINK-3868,1 52649U 22052BD  23325.43271445  .00000243  00000-0  33359-4 0  9998,2 52649  53.2183  66.5424 0001445 100.2470 259.8685 15.08842922 84810,6917.871,95.437,540.736,538.737,0.0
52649.0,STARLINK-3868,PAYLOAD,2023-11-21 13:33:52,15.08845907,0.0001489,53.2184,65.9479,98.7249,261.3912,5.9059e-05,6.52e-06,0.0,0 STARLINK-3868,1 52649U 22052BD  23325.56519189  .00000652  00000-0  59059-4 0  9991,2 52649  53.2184  65.9479 0001489  98.7249 261.3912 15.08845907 84465,6917.862,95.437,540.757,538.697,0.0
52649.0,STARLINK-3868,PAYLOAD,2023-11-21 16:44:38,15.08849428,0.0001522,53.2188,65.3525,102.2382,257.878,9.0716e-05,1.156e-05,0.0,0 STARLINK-3868,1 52649U 22052BD  23325.69766796  .00001156  00000-0  90716-4 0  9998,2 52649  53.2188  65.3525 0001522 102.2382 257.8780 15.08849428 84850,6917.852,95.437,540.769,538.664,0.0
52649.0,STARLINK-3868,PAYLOAD,2023-11-22 11:49:16,15.08844832,0.0001568,53.2205,61.7841,93.9014,266.2158,7.5359e-05,9.12e-06,0.0,0 STARLINK-3868,1 52649U 22052BD  23326.49254928  .00000912  00000-0  75359-4 0  9991,2 52649  53.2205  61.7841 0001568  93.9014 266.2158 15.08844832 84979,6917.866,95.437,540.815,538.646,0.0
52649.0,STARLINK-3868,PAYLOAD,2023-11-22 13:24:39,15.08852623,0.0001556,53.2188,61.4877,86.0754,274.0416,6.8583e-05,8.04e-06,0.0,0 STARLINK-3868,1 52649U 22052BD  23326.55878499  .00000804  00000-0  68583-4 0  9994,2 52649  53.2188  61.4877 0001556  86.0754 274.0416 15.08852623 84618,6917.842,95.437,540.783,538.63,0.0
52649.0,STARLINK-3868,PAYLOAD,2023-11-23 11:40:03,15.08837726,0.0001657,53.2198,57.3257,112.7128,247.404,-1.1288e-05,-4.68e-06,0.0,0 STARLINK-3868,1 52649U 22052BD  23327.48615588 -.00000468  00000-0 -11288-4 0  9993,2 52649  53.2198  57.3257 0001657 112.7128 247.4040 15.08837726 85120,6917.887,95.438,540.899,538.606,0.0
52649.0,STARLINK-3868,PAYLOAD,2023-11-23 13:15:26,15.08841287,0.000149,53.2195,57.0275,103.1711,256.9448,-2.6796e-05,-7.14e-06,0.0,0 STARLINK-3868,1 52649U 22052BD  23327.55239469 -.00000714  00000-0 -26796-4 0  9995,2 52649  53.2195  57.0275 0001490 103.1711 256.9448 15.08841287 84764,6917.876,95.437,540.772,538.711,0.0
52649.0,STARLINK-3868,PAYLOAD,2023-11-24 11:30:51,15.08835609,0.0001498,53.2191,52.8647,104.2693,255.8465,-0.0001587,-2.812e-05,0.0,0 STARLINK-3868,1 52649U 22052BD  23328.47976628 -.00002812  00000-0 -15870-3 0  9993,2 52649  53.2191  52.8647 0001498 104.2693 255.8465 15.08835609 85270,6917.894,95.438,540.795,538.723,0.0
52649.0,STARLINK-3868,PAYLOAD,2023-11-24 16:17:00,15.08839677,0.0001479,53.2194,51.9704,80.6454,279.4705,-9.8113e-05,-1.849e-05,0.0,0 STARLINK-3868,1 52649U 22052BD  23328.67848362 -.00001849  00000-0 -98113-4 0  9999,2 52649  53.2194  51.9704 0001479  80.6454 279.4705 15.08839677 84938,6917.881,95.438,540.77,538.723,0.0
52649.0,STARLINK-3868,PAYLOAD,2023-11-25 12:57:00,15.08857867,0.0001357,53.2192,48.104,102.6651,257.4493,0.00028547,4.26e-05,0.0,0 STARLINK-3868,1 52649U 22052BD  23329.53958679  .00004260  00000-0  28547-3 0  9999,2 52649  53.2192  48.1040 0001357 102.6651 257.4493 15.08857867 85062,6917.826,95.436,540.63,538.752,0.0
52649.0,STARLINK-3868,PAYLOAD,2023-11-25 14:32:23,15.08859371,0.0001359,53.2192,47.8031,97.1608,262.9539,0.00029339,4.387e-05,0.0,0 STARLINK-3868,1 52649U 22052BD  23329.60582502  .00004387  00000-0  29339-3 0  9995,2 52649  53.2192  47.8031 0001359  97.1608 262.9539 15.08859371 85075,6917.821,95.436,540.626,538.746,0.0
52649.0,STARLINK-3868,PAYLOAD,2023-11-26 11:12:24,15.08856913,0.0001843,53.2205,43.9376,73.7434,286.3761,0.00024651,3.639e-05,0.0,0 STARLINK-3868,1 52649U 22052BD  23330.46694683  .00003639  00000-0  24651-3 0  9996,2 52649  53.2205  43.9376 0001843  73.7434 286.3761 15.08856913 85575,6917.829,95.436,540.969,538.419,0.0
52649.0,STARLINK-3868,PAYLOAD,2023-11-26 14:23:09,15.0887345,0.0001512,53.2195,43.347,72.6492,287.4665,0.00037232,5.648e-05,0.0,0 STARLINK-3868,1 52649U 22052BD  23330.59941172  .00005648  00000-0  37232-3 0  9999,2 52649  53.2195  43.3470 0001512  72.6492 287.4665 15.08873450 85229,6917.778,95.435,540.689,538.597,0.0
52649.0,STARLINK-3868,PAYLOAD,2023-11-27 04:41:40,15.08813444,0.0001213,53.2212,40.6721,90.1223,269.9908,-0.00044041,-7.285e-05,0.0,0 STARLINK-3868,1 52649U 22052BD  23331.19561291 -.00007285  00000-0 -44041-3 0  9993,2 52649  53.2212  40.6721 0001213  90.1223 269.9908 15.08813444 85685,6917.962,95.439,540.666,538.987,0.0
52649.0,STARLINK-3868,PAYLOAD,2023-11-27 11:03:13,15.08819138,0.0001509,53.2198,39.4815,110.6549,249.4605,-0.00051459,-8.464e-05,0.0,0 STARLINK-3868,1 52649U 22052BD  23331.46057344 -.00008464  00000-0 -51459-3 0  9993,2 52649  53.2198  39.4815 0001509 110.6549 249.4605 15.08819138 85352,6917.944,95.439,540.853,538.765,0.0
52649.0,STARLINK-3868,PAYLOAD,2023-11-28 10:53:58,15.08869018,0.0001774,53.22,35.0215,98.9683,261.151,-2.0106e-06,-3.2e-06,0.0,0 STARLINK-3868,1 52649U 22052BD  23332.45415141 -.00000320  00000-0 -20106-5 0  9996,2 52649  53.2200  35.0215 0001774  98.9683 261.1510 15.08869018 85878,6917.792,95.436,540.884,538.429,0.0
52649.0,STARLINK-3868,PAYLOAD,2023-11-28 14:04:44,15.08871922,0.0001608,53.2196,34.425,97.4553,262.6622,3.7194e-05,3.04e-06,0.0,0 STARLINK-3868,1 52649U 22052BD  23332.58662686  .00000304  00000-0  37194-4 0  9992,2 52649  53.2196  34.4250 0001608  97.4553 262.6622 15.08871922 85529,6917.783,95.436,540.76,538.535,0.0
52649.0,STARLINK-3868,PAYLOAD,2023-11-29 10:44:47,15.08834128,0.0001771,53.219,30.5543,129.425,230.6899,0.00027338,4.065e-05,0.0,0 STARLINK-3868,1 52649U 22052BD  23333.44777022  .00004065  00000-0  27338-3 0  9995,2 52649  53.2190  30.5543 0001771 129.4250 230.6899 15.08834128 86020,6917.898,95.438,540.988,538.538,0.0
52649.0,STARLINK-3868,PAYLOAD,2023-12-01 04:04:49,15.08836102,0.0002088,53.219,22.8314,116.6005,243.5202,8.7841e-05,1.11e-05,0.0,0 STARLINK-3868,1 52649U 22052BD  23335.17001611  .00001110  00000-0  87841-4 0  9995,2 52649  53.2190  22.8314 0002088 116.6005 243.5202 15.08836102 86281,6917.892,95.438,541.202,538.313,0.0
52649.0,STARLINK-3868,PAYLOAD,2023-12-01 08:50:58,15.08840131,0.0001976,53.22,21.9381,115.1396,244.9801,6.6275e-05,7.67e-06,0.0,0 STARLINK-3868,1 52649U 22052BD  23335.36873487  .00000767  00000-0  66275-4 0  9999,2 52649  53.2200  21.9381 0001976 115.1396 244.9801 15.08840131 85948,6917.88,95.438,541.112,538.378,0.0
52649.0,STARLINK-3868,PAYLOAD,2023-12-02 11:52:29,15.08876371,0.0001727,53.2185,16.8809,108.7703,251.3476,0.00044218,6.763e-05,0.0,0 STARLINK-3868,1 52649U 22052BD  23336.49478967  .00006763  00000-0  44218-3 0  9992,2 52649  53.2185  16.8809 0001727 108.7703 251.3476 15.08876371 86487,6917.769,95.435,540.829,538.44,0.0
52649.0,STARLINK-3868,PAYLOAD,2023-12-02 23:00:13,15.08829096,0.0001745,53.2182,14.7997,126.8339,233.2814,-0.00020873,-3.608e-05,0.0,0 STARLINK-3868,1 52649U 22052BD  23336.95849033 -.00003608  00000-0 -20873-3 0  9997,2 52649  53.2182  14.7997 0001745 126.8339 233.2814 15.08829096 86550,6917.914,95.438,540.986,538.572,0.0
52649.0,STARLINK-3868,PAYLOAD,2023-12-03 11:43:20,15.08801601,0.0001489,53.2172,12.4225,89.9899,270.1264,-0.00046252,-7.634e-05,0.0,0 STARLINK-3868,1 52649U 22052BD  23337.48843645 -.00007634  00000-0 -46252-3 0  9991,2 52649  53.2172  12.4225 0001489  89.9899 270.1264 15.08801601 86633,6917.998,95.44,540.893,538.833,0.0
52649.0,STARLINK-3868,PAYLOAD,2023-12-04 02:01:48,15.08826419,0.0001366,53.2191,9.7428,88.7688,271.346,-0.00013611,-2.453e-05,0.0,0 STARLINK-3868,1 52649U 22052BD  23338.08458794 -.00002453  00000-0 -13611-3 0  9992,2 52649  53.2191   9.7428 0001366  88.7688 271.3460 15.08826419 86720,6917.922,95.438,540.732,538.842,0.0
52649.0,STARLINK-3868,PAYLOAD,2023-12-04 09:58:43,15.08850709,0.000184,53.2176,8.2615,72.8488,287.2706,0.00049942,7.671e-05,0.0,0 STARLINK-3868,1 52649U 22052BD  23338.41578449  .00007671  00000-0  49942-3 0  9990,2 52649  53.2176   8.2615 0001840  72.8488 287.2706 15.08850709 86777,6917.848,95.437,540.986,538.44,0.0
52649.0,STARLINK-3868,PAYLOAD,2023-12-04 22:41:49,15.08847151,0.0001787,53.2175,5.8823,80.4509,279.6685,0.00064162,9.94e-05,0.0,0 STARLINK-3868,1 52649U 22052BD  23338.94570744  .00009940  00000-0  64162-3 0  9990,2 52649  53.2175   5.8823 0001787  80.4509 279.6685 15.08847151 86856,6917.859,95.437,540.96,538.487,0.0
